TIANMU-1 07             
1 57399U 23101A   26065.57454230  .00008352  00000+0  29795-3 0  9991
2 57399  97.2728 118.5929 0004609 142.4105 217.7458 15.29118809145964
STARLINK-31211          
1 59031U 24038J   26068.24717880 -.00000834  00000+0 -20818-4 0  9993
2 59031  42.9996  29.2471 0000681 253.7027 106.3750 15.27571669114585
